0 SL-12 DEB
1 29441U 89039CQ  13279.49716453 -.00004521  00000-0 -77857-1 0  4781
2 29441 063.1089 071.1822 3879350 007.7687 025.8021 06.56464945154030
0 SL-12 DEB
1 29441U 89039CQ  13280.87101082 -.00005934  00000-0 -10244+0 0  4796
2 29441 063.1138 070.2589 3879213 007.7654 032.4965 06.56429614154122
0 SL-12 DEB
1 29441U 89039CQ  13285.43214507 -.00004338  00000-0 -80576-1 0  4806
2 29441 063.0025 067.1828 3863338 007.4443 011.1569 06.56357560154428
0 SL-12 DEB
1 29441U 89039CQ  13286.34433704 -.00004337  00000-0 -80071-1 0  4819
2 29441 063.0137 066.5625 3864589 007.4743 006.6154 06.56375544154489
0 SL-12 DEB
1 29441U 89039CQ  13288.48551001 -.00005603  00000-0 -10341+0 0  4826
2 29441 063.0304 065.1266 3864888 007.5547 026.0640 06.56363836154629
0 SL-12 DEB
1 29441U 89039CQ  13289.39281968 -.00004764  00000-0 -88330-1 0  4832
2 29441 063.0145 064.5153 3863681 007.3873 010.1041 06.56379493154681
0 SL-12 DEB
1 29441U 89039CQ  13291.37398784 -.00003195  00000-0 -59788-1 0  4841
2 29441 062.9808 063.1766 3861629 007.3450 011.5032 06.56330685154811
0 SL-12 DEB
1 29441U 89039CQ  13293.35426175 -.00004252  00000-0 -80562-1 0  4857
2 29441 062.9635 061.8453 3859591 007.3201 010.5297 06.56253765154945
